PHISAT 2                
1 60470U 24149C   26068.78834181  .00008925  00000+0  31421-3 0  9996
2 60470  97.3806 148.6498 0001175 168.6230 191.5037 15.29548631 86792
STARLINK-34026          
1 63842U 25093G   26068.38963381  .00034641  00000+0  12629-2 0  9994
2 63842  42.9984  79.8270 0001259 273.7064  86.3644 15.27569695 47704
